NOAA 19                 
1 33591U 09005A   25016.13687281  .00000278  00000+0  17226-3 0  9992
2 33591  99.0193  79.9081 0014432  54.5182 305.7334 14.13260212821702
